HAWK-11A                
1 62382U 24247F   26068.51231358  .00009457  00000+0  34106-3 0  9991
2 62382  44.9941 114.3328 0005466 327.3713  32.6832 15.28849427 67741
STARLINK-34453          
1 64441U 25130D   26068.44480197  .00022183  00000+0  75892-3 0  9998
2 64441  53.1600  89.8144 0001511  81.2023 278.9149 15.30196972 40663
